[{"OBJECT_NAME":"ICEYE-X7","OBJECT_ID":"2020-068L","EPOCH":"2026-03-09T22:52:28.702272","MEAN_MOTION":15.29152508,"ECCENTRICITY":0.00068409,"INCLINATION":97.7412,"RA_OF_ASC_NODE":31.2076,"ARG_OF_PERICENTER":332.3045,"MEAN_ANOMALY":27.7829,"EPHEMERIS_TYPE":0,"CLASSIFICATION_TYPE":"U","NORAD_CAT_ID":46496,"ELEMENT_SET_NO":999,"REV_AT_EPOCH":29961,"BSTAR":0.0005654802,"MEAN_MOTION_DOT":0.00015947,"MEAN_MOTION_DDOT":0},{"OBJECT_NAME":"STARLINK-32953","OBJECT_ID":"2025-075P","EPOCH":"2026-03-09T22:33:33.185088","MEAN_MOTION":15.27599288,"ECCENTRICITY":0.00010292,"INCLINATION":43.0028,"RA_OF_ASC_NODE":269.3945,"ARG_OF_PERICENTER":259.1113,"MEAN_ANOMALY":100.9623,"EPHEMERIS_TYPE":0,"CLASSIFICATION_TYPE":"U","NORAD_CAT_ID":63561,"ELEMENT_SET_NO":999,"REV_AT_EPOCH":5196,"BSTAR":0.00099784921,"MEAN_MOTION_DOT":0.00027314,"MEAN_MOTION_DDOT":0}]
